{
    "links": {
        "self": "http://www.neowsapp.com/rest/v1/neo/3684347?api_key=iIulBulltgU6a56xZRHN4H3l9WmuAYTsLGpBGhQ2"
    },
    "id": "3684347",
    "neo_reference_id": "3684347",
    "name": "(2014 QP362)",
    "designation": "2014 QP362",
    "nasa_jpl_url": "http://ssd.jpl.nasa.gov/sbdb.cgi?sstr=3684347",
    "absolute_magnitude_h": 24.4,
    "estimated_diameter": {
        "kilometers": {
            "estimated_diameter_min": 0.0350392641,
            "estimated_diameter_max": 0.0783501764
        },
        "meters": {
            "estimated_diameter_min": 35.0392641108,
            "estimated_diameter_max": 78.3501764334
        },
        "miles": {
            "estimated_diameter_min": 0.0217723826,
            "estimated_diameter_max": 0.0486845275
        },
        "feet": {
            "estimated_diameter_min": 114.9582192654,
            "estimated_diameter_max": 257.0543928497
        }
    },
    "is_potentially_hazardous_asteroid": false,
    "close_approach_data": [
        {
            "close_approach_date": "2014-09-08",
            "close_approach_date_full": "2014-Sep-08 12:54",
            "epoch_date_close_approach": 1410180840000,
            "relative_velocity": {
                "kilometers_per_second": "4.0004309816",
                "kilometers_per_hour": "14401.5515337865",
                "miles_per_hour": "8948.5640627575"
            },
            "miss_distance": {
                "astronomical": "0.1646240778",
                "lunar": "64.0387662642",
                "kilometers": "24627411.389594286",
                "miles": "15302763.8389057068"
            },
            "orbiting_body": "Earth"
        }
    ],
    "orbital_data": {
        "orbit_id": "3",
        "orbit_determination_date": "2017-04-06 08:39:05",
        "first_observation_date": "2014-08-25",
        "last_observation_date": "2014-08-29",
        "data_arc_in_days": 4,
        "observations_used": 9,
        "orbit_uncertainty": "8",
        "minimum_orbit_intersection": ".154503",
        "jupiter_tisserand_invariant": "4.323",
        "epoch_osculation": "2456896.5",
        "eccentricity": ".2747189440572693",
        "semi_major_axis": "1.592577415302723",
        "inclination": "7.080751122916851",
        "ascending_node_longitude": "336.0893668012797",
        "orbital_period": "734.0899117003123",
        "perihelion_distance": "1.155066229441304",
        "perihelion_argument": "22.06518223231202",
        "aphelion_distance": "2.030088601164143",
        "perihelion_time": "2456925.966849490080",
        "mean_anomaly": "345.5493643934457",
        "mean_motion": ".4904031430784296",
        "equinox": "J2000",
        "orbit_class": {
            "orbit_class_type": "AMO",
            "orbit_class_description": "Near-Earth asteroid orbits similar to that of 1221 Amor",
            "orbit_class_range": "1.017 AU < q (perihelion) < 1.3 AU"
        }
    },
    "is_sentry_object": false
}